XRISM                   
1 57800U 23137A   24036.70010248  .00006408  00000+0  50342-3 0  9997
2 57800  31.0031 134.8037 0009822 336.6730  23.3458 14.99467825 22773
